[Satellite]
VERSION=1.1
NAME=SurfSat
NICKNAME=SurfSat
TLE1=1 43614U 18070B   20157.70277254  .00002622  00000-0  67548-4 0  9999
TLE2=2 43614  93.0194 149.7310 0016682  32.4993 327.7285 15.39141664 96676
STATUS=0
